{"fetched_at":"2026-03-30T13:17:50Z","count":15418,"tles":[{"name":"STARLINK-31663","line1":"1 59576U 24076N   26087.87446426  .00001532  00000+0  65171-4 0  9999","line2":"2 59576  43.0026 260.9241 0001763 277.3355  82.7296 15.27583668109434","category":"Starlink"}]}